OBJECT_NAME,OBJECT_ID,EPOCH,MEAN_MOTION,ECCENTRICITY,INCLINATION,RA_OF_ASC_NODE,ARG_OF_PERICENTER,MEAN_ANOMALY,EPHEMERIS_TYPE,CLASSIFICATION_TYPE,NORAD_CAT_ID,ELEMENT_SET_NO,REV_AT_EPOCH,BSTAR,MEAN_MOTION_DOT,MEAN_MOTION_DDOT
SHIYAN 24C 03,2023-206C,2024-01-20T19:42:42.510240,15.06675475,.0011407,97.3353,28.6295,194.0295,166.0618,0,U,58652,999,388,.24942E-3,.3648E-4,0
BEIDOU-3 M25,2023-207A,2024-01-19T12:00:00.000000,1.86231622,.0003594,55.0020,92.1740,252.7320,285.8580,0,U,58654,999,45,0,-.68E-6,0
BEIDOU-3 M26,2023-207B,2024-01-05T20:19:36.281280,1.85607573,.0316732,54.6471,92.7627,68.9835,87.0455,0,U,58655,999,19,0,-.37E-6,0
YZ-1 R/B,2023-207C,2024-01-19T20:13:26.285376,1.79266334,.0027922,55.0464,92.0262,330.0079,29.8698,0,U,58656,999,44,0,-.54E-6,0
CZ-3B R/B,2023-207D,2024-01-20T08:50:01.650624,4.43862562,.5788118,54.9730,78.9650,178.2103,185.5917,0,U,58657,999,111,.21362E-2,.58303E-3,0
COSMOS 2574,2023-209A,2024-01-20T17:30:37.493568,15.72827192,.0004559,96.7549,279.1938,311.9494,48.1382,0,U,58658,999,384,.22969E-3,.30977E-3,0
SL-4 R/B,2023-209B,2024-01-20T06:17:04.487136,15.75360164,.0001687,96.7581,278.8136,281.1363,78.9714,0,U,58659,999,375,.55309E-3,.83794E-3,0
TIANMU-1 19,2023-208A,2024-01-20T20:30:03.837312,15.13154555,.0011754,97.3998,137.3093,156.5343,203.6427,0,U,58660,999,372,.45414E-3,.8004E-4,0
TIANMU-1 20,2023-208B,2024-01-20T20:21:48.968352,15.14086161,.0011348,97.3920,137.2914,168.3696,191.7800,0,U,58661,999,372,.42884E-3,.7754E-4,0
TIANMU-1 21,2023-208C,2024-01-20T20:19:11.788608,15.14315932,.0010392,97.3966,137.3089,168.7284,191.4183,0,U,58662,999,372,.46043E-3,.8383E-4,0
TIANMU-1 22,2023-208D,2024-01-20T20:11:40.046208,15.14629846,.0010761,97.3980,137.3205,177.4794,182.6495,0,U,58663,999,372,.42822E-3,.7861E-4,0
STARLINK-31113,2023-211B,2024-01-20T22:00:00.999936,15.45398865,.0001331,42.9996,156.6973,276.0383,282.3247,0,U,58668,999,471,-.49919E-1,-.2158273E-1,0
STARLINK-31128,2023-211C,2024-01-20T14:00:01.000224,15.48888814,.0001785,42.9996,158.6131,255.8954,253.8925,0,U,58669,999,449,.91752E-3,.50697E-3,0
STARLINK-31083,2023-211D,2024-01-20T14:00:01.000224,15.45662444,.0001105,42.9996,158.6475,284.7768,211.6533,0,U,58670,999,460,-.50265E-1,-.2188877E-1,0
STARLINK-30828,2023-211E,2024-01-20T14:00:01.000224,15.48882213,.0002415,42.9996,158.6346,258.7312,242.6395,0,U,58671,999,422,.84967E-3,.46891E-3,0
STARLINK-31104,2023-211F,2024-01-20T22:00:00.999936,15.43421980,.0001005,42.9998,156.7226,265.6678,283.3374,0,U,58672,999,471,-.53309E-1,-.2153657E-1,0
STARLINK-31131,2023-211G,2024-01-20T22:00:00.999936,15.81693056,.0001827,42.9969,154.3225,281.9470,150.4554,0,U,58673,999,473,-.47595E-2,-.891688E-2,0
STARLINK-31124,2023-211H,2024-01-20T14:00:01.000224,15.47614347,.0001055,42.9996,158.6322,283.9649,218.4641,0,U,58674,999,460,-.46303E-1,-.2162253E-1,0
STARLINK-31126,2023-211J,2024-01-20T22:00:00.999936,15.41087544,.0001199,42.9998,156.6768,267.3929,298.3861,0,U,58675,999,461,-.57637E-1,-.2190333E-1,0
STARLINK-31066,2023-211K,2024-01-20T22:00:00.999936,15.50375685,.0001036,42.9998,155.9081,282.8519,233.8096,0,U,58676,999,472,-.32648E-1,-.169852E-1,0
STARLINK-31058,2023-211L,2024-01-20T14:00:01.000224,15.48212381,.0001313,42.9996,158.6247,301.8199,203.5620,0,U,58677,999,460,-.46562E-1,-.2213869E-1,0
STARLINK-31125,2023-211M,2024-01-20T22:00:00.999936,15.48938399,.0001838,42.9997,156.6769,295.1265,272.1972,0,U,58678,999,461,-.35288E-3,-.19819E-3,0
STARLINK-31110,2023-211N,2024-01-20T22:00:00.999936,15.48649167,.0001236,42.9997,156.6749,264.1347,304.0188,0,U,58679,999,471,-.44827E-1,-.2170342E-1,0
STARLINK-31112,2023-211P,2024-01-20T22:00:00.999936,15.49347326,.0001119,42.9996,156.6706,263.3134,306.4843,0,U,58680,999,461,-.26484E-1,-.1339518E-1,0
STARLINK-31147,2023-211Q,2024-01-20T22:00:00.999936,15.49288997,.0001055,42.9997,156.6730,256.4198,312.5581,0,U,58681,999,471,-.43107E-1,-.213903E-1,0
STARLINK-31144,2023-211R,2024-01-20T22:00:00.999936,15.48949244,.0002495,42.9996,156.6640,271.9075,300.4712,0,U,58682,999,471,-.76655E-3,-.42557E-3,0
STARLINK-31095,2023-211S,2024-01-20T14:00:01.000224,15.48894655,.0001284,42.9996,158.6125,247.6128,263.0238,0,U,58683,999,470,.53727E-3,.29472E-3,0
STARLINK-31107,2023-211T,2024-01-20T14:00:01.000224,15.48874973,.0001665,42.9996,158.6039,247.9352,266.0699,0,U,58684,999,460,.10644E-2,.589E-3,0
STARLINK-31121,2023-211U,2024-01-20T22:00:00.999936,15.48946109,.0002954,42.9997,156.6512,289.0117,288.4263,0,U,58685,999,461,-.63643E-3,-.3542E-3,0
STARLINK-31137,2023-211V,2024-01-20T14:00:01.000224,15.48883272,.0002362,42.9996,158.6049,231.3097,281.8632,0,U,58686,999,470,.78601E-3,.43335E-3,0
